0 JCSAT 2
1 20402U 90001B   13283.15240760 -.00000221  00000-0  00000+0 0  6936
2 20402 010.9112 055.3142 0059829 197.5715 162.2392 00.98539734 69684
0 JCSAT 2
1 20402U 90001B   13291.27054109 -.00000103  00000-0  00000+0 0  6959
2 20402 010.9272 055.2094 0060516 197.9161 161.8527 00.98537335 69769
0 JCSAT 2
1 20402U 90001B   13292.28531132 -.00000077  00000-0  00000+0 0  6968
2 20402 010.9300 055.1963 0061433 198.3412 161.4039 00.98536943 69777
0 JCSAT 2
1 20402U 90001B   13294.31490311 -.00000032  00000-0  00000+0 0  6979
2 20402 010.9339 055.1698 0061384 198.4115 161.3283 00.98536423 69795
